{"type": "FeatureCollection", "features": [ {"type": "Feature", "properties": {"norad_id": 34327, "name": "COSMOS 2251 DEB", "group": "cosmos-2251-debris", "lat": 14.293869708452897, "lon": -9.574018469183276, "alt_km": 623.9774290236101, "timestamp": "2025-12-11T08:58:27.519378+00:00", "meta": {"OBJECT_NAME": "COSMOS 2251 DEB", "OBJECT_ID": "1993-036NZ", "EPOCH": "2025-12-10T19:24:40.396032", "MEAN_MOTION": 14.89106271, "ECCENTRICITY": 0.00326918, "INCLINATION": 73.9935, "RA_OF_ASC_NODE": 175.7519, "ARG_OF_PERICENTER": 352.5139, "MEAN_ANOMALY": 24.1724, "EPHEMERIS_TYPE": 0, "CLASSIFICATION_TYPE": "U", "NORAD_CAT_ID": 34327, "ELEMENT_SET_NO": 999, "REV_AT_EPOCH": 89479, "BSTAR": 0.0018515868, "MEAN_MOTION_DOT": 0.0001765, "MEAN_MOTION_DDOT": 0}, "tle": {"line1": "1 34327U 93036NZ  25344.80880088  .00017650  00000+0  18516-2 0  9999", "line2": "2 34327  73.9935 175.7519 0032691 352.5139  24.1724 14.89106271894797"}}, "geometry": {"type": "Point", "coordinates": [-9.574018469183276, 14.293869708452897]}}, {"type": "Feature", "properties": {"norad_id": 34340, "name": "COSMOS 2251 DEB", "group": "cosmos-2251-debris", "lat": 36.76109553739833, "lon": 117.95704939318802, "alt_km": 931.5517674852363, "timestamp": "2025-12-11T08:58:27.519388+00:00", "meta": {"OBJECT_NAME": "COSMOS 2251 DEB", "OBJECT_ID": "1993-036PN", "EPOCH": "2025-12-11T04:54:47.647296", "MEAN_MOTION": 13.79560912, "ECCENTRICITY": 0.0282447, "INCLINATION": 74.0795, "RA_OF_ASC_NODE": 310.5506, "ARG_OF_PERICENTER": 58.7074, "MEAN_ANOMALY": 319.4618, "EPHEMERIS_TYPE": 0, "CLASSIFICATION_TYPE": "U", "NORAD_CAT_ID": 34340, "ELEMENT_SET_NO": 999, "REV_AT_EPOCH": 84247, "BSTAR": 0.0018898, "MEAN_MOTION_DOT": 2.607e-05, "MEAN_MOTION_DDOT": 0}, "tle": {"line1": "1 34340U 93036PN  25345.20471814  .00002607  00000+0  18898-2 0  9991", "line2": "2 34340  74.0795 310.5506 0282447  58.7074 319.4618 13.79560912842476"}}, "geometry": {"type": "Point", "coordinates": [117.95704939318802, 36.76109553739833]}}, {"type": "Feature", "properties": {"norad_id": 34343, "name": "COSMOS 2251 DEB", "group": "cosmos-2251-debris", "lat": 47.32326930963689, "lon": -105.90369273432339, "alt_km": 667.1865800329897, "timestamp": "2025-12-11T08:58:27.519399+00:00", "meta": {"OBJECT_NAME": "COSMOS 2251 DEB", "OBJECT_ID": "1993-036PR", "EPOCH": "2025-12-10T09:48:03.382272", "MEAN_MOTION": 14.69372758, "ECCENTRICITY": 0.00231761, "INCLINATION": 74.02, "RA_OF_ASC_NODE": 94.0746, "ARG_OF_PERICENTER": 9.6643, "MEAN_ANOMALY": 54.6732, "EPHEMERIS_TYPE": 0, "CLASSIFICATION_TYPE": "U", "NORAD_CAT_ID": 34343, "ELEMENT_SET_NO": 999, "REV_AT_EPOCH": 88696, "BSTAR": 0.0024450479, "MEAN_MOTION_DOT": 0.00014515, "MEAN_MOTION_DDOT": 0}, "tle": {"line1": "1 34343U 93036PR  25344.40837248  .00014515  00000+0  24450-2 0  9994", "line2": "2 34343  74.0200  94.0746 0023176   9.6643  54.6732 14.69372758886965"}}, "geometry": {"type": "Point", "coordinates": [-105.90369273432339, 47.32326930963689]}}, {"type": "Feature", "properties": {"norad_id": 34344, "name": "COSMOS 2251 DEB", "group": "cosmos-2251-debris", "lat": 46.498584005931534, "lon": -84.83722566503631, "alt_km": 942.2506117975781, "timestamp": "2025-12-11T08:58:27.519409+00:00", "meta": {"OBJECT_NAME": "COSMOS 2251 DEB", "OBJECT_ID": "1993-036PS", "EPOCH": "2025-12-10T19:31:09.071616", "MEAN_MOTION": 14.16385195, "ECCENTRICITY": 0.01557659, "INCLINATION": 73.979, "RA_OF_ASC_NODE": 113.7866, "ARG_OF_PERICENTER": 298.3649, "MEAN_ANOMALY": 215.4662, "EPHEMERIS_TYPE": 0, "CLASSIFICATION_TYPE": "U", "NORAD_CAT_ID": 34344, "ELEMENT_SET_NO": 999, "REV_AT_EPOCH": 86069, "BSTAR": 0.0025128303, "MEAN_MOTION_DOT": 5.596e-05, "MEAN_MOTION_DDOT": 0}, "tle": {"line1": "1 34344U 93036PS  25344.81329944  .00005596  00000+0  25128-2 0  9991", "line2": "2 34344  73.9790 113.7866 0155765 298.3649 215.4662 14.16385195860695"}}, "geometry": {"type": "Point", "coordinates": [-84.83722566503631, 46.498584005931534]}}, {"type": "Feature", "properties": {"norad_id": 34346, "name": "COSMOS 2251 DEB", "group": "cosmos-2251-debris", "lat": -33.24189887722743, "lon": -56.22519602469063, "alt_km": 1047.6393344045373, "timestamp": "2025-12-11T08:58:27.519419+00:00", "meta": {"OBJECT_NAME": "COSMOS 2251 DEB", "OBJECT_ID": "1993-036PU", "EPOCH": "2025-12-09T09:42:38.152800", "MEAN_MOTION": 13.9967692, "ECCENTRICITY": 0.02063467, "INCLINATION": 73.9954, "RA_OF_ASC_NODE": 318.0332, "ARG_OF_PERICENTER": 137.7544, "MEAN_ANOMALY": 348.7735, "EPHEMERIS_TYPE": 0, "CLASSIFICATION_TYPE": "U", "NORAD_CAT_ID": 34346, "ELEMENT_SET_NO": 999, "REV_AT_EPOCH": 85363, "BSTAR": 0.0013127855, "MEAN_MOTION_DOT": 2.284e-05, "MEAN_MOTION_DDOT": 0}, "tle": {"line1": "1 34346U 93036PU  25343.40460825  .00002284  00000+0  13128-2 0  9999", "line2": "2 34346  73.9954 318.0332 0206346 137.7544 348.7735 13.99676920853635"}}, "geometry": {"type": "Point", "coordinates": [-56.22519602469063, -33.24189887722743]}}, {"type": "Feature", "properties": {"norad_id": 34383, "name": "COSMOS 2251 DEB", "group": "cosmos-2251-debris", "lat": -12.722431412309328, "lon": -63.18910950217647, "alt_km": 542.9870191269292, "timestamp": "2025-12-11T08:58:27.519430+00:00", "meta": {"OBJECT_NAME": "COSMOS 2251 DEB", "OBJECT_ID": "1993-036PY", "EPOCH": "2025-12-10T08:14:16.800000", "MEAN_MOTION": 15.08646541, "ECCENTRICITY": 0.0002372, "INCLINATION": 74.023, "RA_OF_ASC_NODE": 302.6436, "ARG_OF_PERICENTER": 39.3315, "MEAN_ANOMALY": 111.9306, "EPHEMERIS_TYPE": 0, "CLASSIFICATION_TYPE": "U", "NORAD_CAT_ID": 34383, "ELEMENT_SET_NO": 999, "REV_AT_EPOCH": 89077, "BSTAR": 0.0047267, "MEAN_MOTION_DOT": 0.00074783, "MEAN_MOTION_DDOT": 0}, "tle": {"line1": "1 34383U 93036PY  25344.34325000  .00074783  00000+0  47267-2 0  9993", "line2": "2 34383  74.0230 302.6436 0002372  39.3315 111.9306 15.08646541890773"}}, "geometry": {"type": "Point", "coordinates": [-63.18910950217647, -12.722431412309328]}}, {"type": "Feature", "properties": {"norad_id": 34387, "name": "COSMOS 2251 DEB", "group": "cosmos-2251-debris", "lat": -58.632433606228744, "lon": 62.43291103739894, "alt_km": 742.6748704558668, "timestamp": "2025-12-11T08:58:27.519499+00:00", "meta": {"OBJECT_NAME": "COSMOS 2251 DEB", "OBJECT_ID": "1993-036QC", "EPOCH": "2025-12-10T02:38:42.383328", "MEAN_MOTION": 14.43811419, "ECCENTRICITY": 0.00387491, "INCLINATION": 74.0396, "RA_OF_ASC_NODE": 216.7829, "ARG_OF_PERICENTER": 314.1961, "MEAN_ANOMALY": 203.0035, "EPHEMERIS_TYPE": 0, "CLASSIFICATION_TYPE": "U", "NORAD_CAT_ID": 34387, "ELEMENT_SET_NO": 999, "REV_AT_EPOCH": 88143, "BSTAR": 0.00042782759, "MEAN_MOTION_DOT": 1.443e-05, "MEAN_MOTION_DDOT": 0}, "tle": {"line1": "1 34387U 93036QC  25344.11021277  .00001443  00000+0  42783-3 0  9993", "line2": "2 34387  74.0396 216.7829 0038749 314.1961 203.0035 14.43811419881430"}}, "geometry": {"type": "Point", "coordinates": [62.43291103739894, -58.632433606228744]}}, {"type": "Feature", "properties": {"norad_id": 34388, "name": "COSMOS 2251 DEB", "group": "cosmos-2251-debris", "lat": -17.54226335751432, "lon": 50.85732796049667, "alt_km": 729.8740888787497, "timestamp": "2025-12-11T08:58:27.519512+00:00", "meta": {"OBJECT_NAME": "COSMOS 2251 DEB", "OBJECT_ID": "1993-036QD", "EPOCH": "2025-12-10T22:11:32.733024", "MEAN_MOTION": 14.49349762, "ECCENTRICITY": 0.0014113, "INCLINATION": 74.0389, "RA_OF_ASC_NODE": 226.5089, "ARG_OF_PERICENTER": 274.8216, "MEAN_ANOMALY": 100.4357, "EPHEMERIS_TYPE": 0, "CLASSIFICATION_TYPE": "U", "NORAD_CAT_ID": 34388, "ELEMENT_SET_NO": 999, "REV_AT_EPOCH": 88129, "BSTAR": 0.0010212, "MEAN_MOTION_DOT": 3.881e-05, "MEAN_MOTION_DDOT": 0}, "tle": {"line1": "1 34388U 93036QD  25344.92468441  .00003881  00000+0  10212-2 0  9990", "line2": "2 34388  74.0389 226.5089 0014113 274.8216 100.4357 14.49349762881298"}}, "geometry": {"type": "Point", "coordinates": [50.85732796049667, -17.54226335751432]}}, {"type": "Feature", "properties": {"norad_id": 34389, "name": "COSMOS 2251 DEB", "group": "cosmos-2251-debris", "lat": -70.6369613975444, "lon": 126.97698845133823, "alt_km": 765.8878899794472, "timestamp": "2025-12-11T08:58:27.519523+00:00", "meta": {"OBJECT_NAME": "COSMOS 2251 DEB", "OBJECT_ID": "1993-036QE", "EPOCH": "2025-12-10T18:35:37.225824", "MEAN_MOTION": 14.41525543, "ECCENTRICITY": 0.00288178, "INCLINATION": 74.0193, "RA_OF_ASC_NODE": 253.4577, "ARG_OF_PERICENTER": 5.8457, "MEAN_ANOMALY": 25.1274, "EPHEMERIS_TYPE": 0, "CLASSIFICATION_TYPE": "U", "NORAD_CAT_ID": 34389, "ELEMENT_SET_NO": 999, "REV_AT_EPOCH": 87984, "BSTAR": 0.00064633379, "MEAN_MOTION_DOT": 2.084e-05, "MEAN_MOTION_DDOT": 0}, "tle": {"line1": "1 34389U 93036QE  25344.77473641  .00002084  00000+0  64633-3 0  9993", "line2": "2 34389  74.0193 253.4577 0028817   5.8457  25.1274 14.41525543879842"}}, "geometry": {"type": "Point", "coordinates": [126.97698845133823, -70.6369613975444]}}, {"type": "Feature", "properties": {"norad_id": 34396, "name": "COSMOS 2251 DEB", "group": "cosmos-2251-debris", "lat": 20.997465944581133, "lon": 133.01101773917404, "alt_km": 650.4107213723428, "timestamp": "2025-12-11T08:58:27.519533+00:00", "meta": {"OBJECT_NAME": "COSMOS 2251 DEB", "OBJECT_ID": "1993-036QM", "EPOCH": "2025-12-10T20:34:12.345312", "MEAN_MOTION": 14.74331674, "ECCENTRICITY": 0.00062251, "INCLINATION": 74.0288, "RA_OF_ASC_NODE": 127.7092, "ARG_OF_PERICENTER": 169.5528, "MEAN_ANOMALY": 350.4047, "EPHEMERIS_TYPE": 0, "CLASSIFICATION_TYPE": "U", "NORAD_CAT_ID": 34396, "ELEMENT_SET_NO": 999, "REV_AT_EPOCH": 88318, "BSTAR": 0.003749553, "MEAN_MOTION_DOT": 0.00024907, "MEAN_MOTION_DDOT": 0}, "tle": {"line1": "1 34396U 93036QM  25344.85708733  .00024907  00000+0  37496-2 0  9997", "line2": "2 34396  74.0288 127.7092 0006225 169.5528 350.4047 14.74331674883186"}}, "geometry": {"type": "Point", "coordinates": [133.01101773917404, 20.997465944581133]}}]}